398P/Boattini,e,11.0161,127.4470,320.2028,3.126873,0.1782537,0.58293120,115.5360,10/06.0/2022,2000,g 15.5,4.0
# From MPEC 2022-M88
399P/PANSTARRS,e,13.3207,207.1327,214.3397,3.791639,0.1334946,0.44721073,66.9169,10/06.0/2022,2000,g 14.0,4.0
# From MPEC 2022-ED3
400P/PANSTARRS,e,10.9303,176.3915,238.8189,3.561403,0.1466467,0.40949353,88.3850,10/06.0/2022,2000,g 15.5,2.8
# From MPEC 2022-K19
401P/McNaught,e,12.8026,359.8782,309.4195,5.776340,0.0709945,0.57967200,73.4169,10/06.0/2022,2000,g 12.5,4.0
# From MPEC 2022-P82
402P/LINEAR,e,30.8466,123.0929,326.7422,7.022703,0.0529600,0.43925661,15.6415,10/06.0/2022,2000,g  8.0,4.0
# From MPEC 2021-J28
403P/Catalina,e,12.3216,163.8120,277.6377,5.428310,0.0779304,0.50380134,58.4103,10/06.0/2022,2000,g 12.0,4.0
# From MPEC 2022-ST7
404P/Bressi,e,9.7442,260.2927,168.1230,4.765974,0.0947276,0.13238349,323.4610,10/06.0/2022,2000,g 10.0,4.0
# From MPEC 2021-L04
405P/Lemmon,e,9.3656,3.3150,112.1953,3.606504,0.1439045,0.68922616,93.6390,10/06.0/2022,2000,g 17.5,4.0
# From MPEC 2021-F20
406P/Gibbs,e,1.2133,11.4849,352.4205,3.576504,0.1457190,0.54204953,109.3046,10/06.0/2022,2000,g 17.0,4.0
# From MPEC 2021-F20
407P/PANSTARRS-Fuls,e,4.8749,80.4706,93.4417,3.474153,0.1522056,0.38093608,149.0902,10/06.0/2022,2000,g 14.0,4.0
# From MPEC 2022-ST7
408P/Novichonok-Gerke,e,19.3570,189.4414,226.4587,4.743903,0.0953895,0.26905715,0.0894,10/06.0/2022,2000,g 11.0,4.0
# From MPEC 2022-ED3
409P/LONEOS-Hill,e,17.1199,143.6677,15.1051,6.040218,0.0663934,0.70965326,40.8965,10/06.0/2022,2000,g 14.0,4.0
# From MPEC 2022-M21
410P/NEAT-LINEAR,e,9.3928,139.9787,313.0976,6.639876,0.0576055,0.51103363,27.0376,10/06.0/2022,2000,g 12.5,4.0
# From MPEC 2021-J28
411P/Christensen,e,12.3812,77.6559,46.6179,5.813867,0.0703083,0.58082416,43.5696,10/06.0/2022,2000,g 13.5,4.0
# From MPEC 2021-F20
412P/WISE,e,8.9314,0.8442,155.9453,3.109983,0.1797078,0.47928447,120.3904,10/06.0/2022,2000,g 17.0,4.0
# From MPEC 2022-OB6
413P/Larson,e,15.9799,38.9920,186.2238,3.714514,0.1376737,0.42332353,60.9161,10/06.0/2022,2000,g 14.0,4.0
# From MPEC 2021-BE3
414P/STEREO,e,23.3911,257.7943,210.7086,2.793585,0.2110869,0.81169010,130.5943,10/06.0/2022,2000,g 19.0,4.0
# From MPEC 2022-J42
415P/Tenagra,e,31.7920,160.2927,346.0787,4.113079,0.1181554,0.19465467,70.7526,10/06.0/2022,2000,g 12.0,4.0
# From MPEC 2021-L04
416P/Scotti,e,3.3612,355.8079,134.4399,4.010565,0.1227145,0.45433228,73.3445,10/06.0/2022,2000,g 15.5,4.0
# From MPEC 2021-W31
417P/NEOWISE,e,8.1216,111.0641,129.5552,3.346371,0.1610063,0.55639782,85.5318,10/06.0/2022,2000,g 16.5,4.0
# From MPEC 2022-ST7
418P/LINEAR,e,5.7933,277.6161,307.2218,5.086993,0.0859038,0.66496769,30.3526,10/06.0/2022,2000,g 13.0,4.0
# From MPEC 2022-ST7
419P/PANSTARRS,e,2.8030,40.3889,187.5483,3.520831,0.1491888,0.27750754,51.2311,10/06.0/2022,2000,g 12.5,4.0
# From MPEC 2022-OB6
420P/Hill,e,14.5046,173.9506,157.0315,5.540015,0.0755853,0.49674331,10.3334,10/06.0/2022,2000,g 11.5,4.0
# From MPEC 2021-W31
421P/McNaught,e,10.0780,55.3433,259.8594,5.076035,0.0861821,0.67535540,53.2830,10/06.0/2022,2000,g 14.0,4.0
# From MPEC 2022-ST7
422P/Christensen,e,39.5696,36.0234,305.1036,6.313088,0.0621357,0.50822530,16.4975,10/06.0/2022,2000,g 11.0,4.0
# From MPEC 2022-A21
423P/Lemmon,e,8.3461,33.2981,80.2901,6.168589,0.0643317,0.12140115,24.6150,10/06.0/2022,2000,g  8.0,4.0
# From MPEC 2022-CN4
424P/LaSagra,e,8.6851,51.1723,312.5014,4.415494,0.1062270,0.69129348,36.0486,10/06.0/2022,2000,g 17.0,4.0
# From MPEC 2022-OB6
425P/Kowalski,e,16.4203,210.0797,200.7834,6.335280,0.0618095,0.54374467,23.5123,10/06.0/2022,2000,g 12.0,4.0
# From MPEC 2022-P82
426P/PANSTARRS,e,17.7694,280.5148,119.0157,3.187484,0.1731937,0.16144052,300.6734,10/06.0/2022,2000,g 13.5,4.0
# From MPEC 2022-J42
428P/Gibbs,e,8.5135,299.3401,36.8448,3.485133,0.1514869,0.51940568,77.1586,10/06.0/2022,2000,g 15.0,4.0
# From MPEC 2022-H04
429P/LINEAR-Hill,e,7.5215,322.0748,75.5576,3.551651,0.1472512,0.49137864,40.7614,10/06.0/2022,2000,g 15.5,4.0
# From MPEC 2022-L66
430P/Scotti,e,4.4752,54.6725,94.4768,3.105909,0.1800615,0.49954693,55.4254,10/06.0/2022,2000,g 16.5,4.0
# From MPEC 2022-ED3
431P/Scotti,e,22.3920,202.8441,199.8768,3.473082,0.1522760,0.47774245,35.7232,10/06.0/2022,2000,g 14.0,4.0
# From MPEC 2021-U31
432P/PANSTARRS,e,10.0692,239.1426,105.2450,3.035404,0.1863714,0.24192025,74.8583,10/06.0/2022,2000,g 17.0,4.0
# From MPEC 2022-OB6
434P/Tenagra,e,6.3387,288.9676,128.0993,4.129509,0.1174509,0.27454384,40.5145,10/06.0/2022,2000,g 13.0,4.0
# From MPEC 2021-W31
435P/PANSTARRS,e,18.8813,98.5505,244.1754,3.018693,0.1879211,0.31863463,81.8423,10/06.0/2022,2000,g 17.0,4.0
# From MPEC 2022-M88
436P/Garradd,e,20.2092,87.1894,282.6106,5.929770,0.0682570,0.66981840,20.5781,10/06.0/2022,2000,g 14.5,4.0
# From MPEC 2021-Y10
437P/PANSTARRS,e,3.6892,245.8664,206.7284,4.560123,0.1012137,0.25436709,4.9084,10/06.0/2022,2000,g 13.0,4.0
# From MPEC 2021-W47
438P/Christensen,e,8.2856,260.1485,58.9855,3.848023,0.1305713,0.41552911,119.3063,10/06.0/2022,2000,g 14.5,4.0
# From MPEC 2022-C56
439P/LINEAR,e,7.1142,56.4096,342.0298,3.488688,0.1512554,0.46958031,61.3839,10/06.0/2022,2000,g 13.5,4.0
# From MPEC 2022-L66
440P/Kobayashi,e,12.3390,328.8799,183.3097,8.583505,0.0391929,0.76045888,7.4494,10/06.0/2022,2000,g 15.5,4.0
# From MPEC 2022-OB6
441P/PANSTARRS,e,2.5746,143.6163,178.7734,4.134639,0.1172324,0.19550631,234.7474,10/06.0/2022,2000,g 13.5,4.0
# From MPEC 2022-ST7
442P/McNaught,e,6.0584,32.0166,310.9742,4.979127,0.0887103,0.53354616,4.2462,10/06.0/2022,2000,g 13.5,4.0
# From MPEC 2022-OB6
443P/PANSTARRS-Christensen,e,19.8864,108.9443,145.1099,4.127944,0.1175177,0.28386208,359.5120,10/06.0/2022,2000,g 13.5,4.0
# From MPEC 2022-OB6
444P/WISE-PANSTARRS,e,22.1248,89.4044,170.9008,3.427892,0.1552971,0.57024065,13.6056,10/06.0/2022,2000,g 17.0,4.0
# From MPEC 2022-ST7
445P/Lemmon-PANSTARRS,e,1.0885,126.5682,213.7403,4.061011,0.1204350,0.41439477,5.9203,10/06.0/2022,2000,g 15.0,4.0
# From MPEC 2022-ST7
446P/McNaught,e,16.6143,336.4114,344.7413,4.574228,0.1007459,0.64719367,13.0339,10/06.0/2022,2000,g 16.5,4.0
# From MPEC 2022-OB6
447P/Sheppard-Tholen,e,7.4330,302.6865,97.6073,5.644060,0.0735050,0.18024561,3.5545,10/06.0/2022,2000,g 12.0,4.0
# From MPEC 2022-ST7
448P/PANSTARRS,e,12.1515,161.7569,218.7335,3.636344,0.1421369,0.41917851,4.1819,10/06.0/2022,2000,g 16.0,4.0
# From MPC107687
1I/`Oumuamua,h,09/09.4886/2017,122.6778,24.5997,241.6845,1.199252,0.255240,2000,23.0,2.0
# From MPEC 2020-K19
2I/Borisov,h,12/08.5549/2019,44.0527,308.1480,209.1251,3.356636,2.006548,2000,11.0,4.0
